start=new Date('2023-03-04T00:00:00.000Z').valueOf();
sats=[{"RA_OF_ASC_NODE":"183.0056","MEAN_ANOMALY":"265.5181","COUNTRY_CODE":"US","REV_AT_EPOCH":"14181","OBJECT_NAME":"STARLINK-1612","FILE":"3850400","TLE_LINE2":"2 46164  53.0542 183.0056 0000883  94.5909 265.5181 15.06449793141811","RCS_SIZE":"LARGE","MEAN_MOTION_DDOT":"0.0000000000000","CLASSIFICATION_TYPE":"U","TIME_SYSTEM":"UTC","OBJECT_TYPE":"PAYLOAD","DECAY_DATE":null,"INCLINATION":"53.0542","TLE_LINE1":"1 46164U 20057AZ  23062.84038599  .00031883  00000-0  21468-2 0  9990","ECCENTRICITY":"0.00008830","PERIAPSIS":"546.449","EPOCH":"2023-03-03T20:10:09.349536","GP_ID":"227431331","NORAD_CAT_ID":"46164","SEMIMAJOR_AXIS":"6925.196","EPHEMERIS_TYPE":"0","REF_FRAME":"TEME","LAUNCH_DATE":"2020-08-18","APOAPSIS":"547.672","PERIOD":"95.589","MEAN_MOTION_DOT":"0.00031883","BSTAR":"0.00214680000000","MEAN_ELEMENT_THEORY":"SGP4","OBJECT_ID":"2020-057AZ","CENTER_NAME":"EARTH","SITE":"AFETR","ARG_OF_PERICENTER":"94.5909","ELEMENT_SET_NO":"999","MEAN_MOTION":"15.06449793"},{"LAUNCH_DATE":"2020-08-18","PERIOD":"94.266","APOAPSIS":"485.062","EPHEMERIS_TYPE":"0","REF_FRAME":"TEME","GP_ID":"227406766","EPOCH":"2023-03-03T09:57:24.802560","SEMIMAJOR_AXIS":"6861.149","NORAD_CAT_ID":"46165","PERIAPSIS":"480.966","MEAN_MOTION":"15.27592252","ARG_OF_PERICENTER":"316.4614","ELEMENT_SET_NO":"999","SITE":"AFETR","MEAN_ELEMENT_THEORY":"SGP4","BSTAR":"0.00106590000000","MEAN_MOTION_DOT":"0.00028909","CENTER_NAME":"EARTH","OBJECT_ID":"2020-057BA","FILE":"3850179","OBJECT_NAME":"STARLINK-1613","RCS_SIZE":"LARGE","TLE_LINE2":"2 46165  53.0619 198.7268 0002985 316.4614  43.6149 15.27592252140965","REV_AT_EPOCH":"14096","MEAN_ANOMALY":"43.6149","RA_OF_ASC_NODE":"198.7268","COUNTRY_CODE":"US","INCLINATION":"53.0619","TLE_LINE1":"1 46165U 20057BA  23062.41487040  .00028909  00000-0  10659-2 0  9998","DECAY_DATE":null,"ECCENTRICITY":"0.00029850","OBJECT_TYPE":"PAYLOAD","TIME_SYSTEM":"UTC","CLASSIFICATION_TYPE":"U","MEAN_MOTION_DDOT":"0.0000000000000"},{"MEAN_ANOMALY":"275.7458","RA_OF_ASC_NODE":"224.8663","COUNTRY_CODE":"US","REV_AT_EPOCH":"13993","OBJECT_NAME":"STARLINK-1615","FILE":"3850163","RCS_SIZE":"LARGE","TLE_LINE2":"2 46166  53.0514 224.8663 0001196  84.3667 275.7458 15.06408422139930","CLASSIFICATION_TYPE":"U","MEAN_MOTION_DDOT":"0.0000000000000","OBJECT_TYPE":"PAYLOAD","TIME_SYSTEM":"UTC","INCLINATION":"53.0514","TLE_LINE1":"1 46166U 20057BB  23062.42757579  .00006449  00000-0  45135-3 0  9990","DECAY_DATE":null,"ECCENTRICITY":"0.00011960","PERIAPSIS":"546.359","GP_ID":"227399342","EPOCH":"2023-03-03T10:15:42.548256","SEMIMAJOR_AXIS":"6925.323","NORAD_CAT_ID":"46166","EPHEMERIS_TYPE":"0","REF_FRAME":"TEME","LAUNCH_DATE":"2020-08-18","APOAPSIS":"548.016","PERIOD":"95.592","MEAN_ELEMENT_THEORY":"SGP4","BSTAR":"0.00045135000000","MEAN_MOTION_DOT":"0.00006449","CENTER_NAME":"EARTH","OBJECT_ID":"2020-057BB","SITE":"AFETR","ARG_OF_PERICENTER":"84.3667","ELEMENT_SET_NO":"999","MEAN_MOTION":"15.06408422"},{"REF_FRAME":"TEME","EPHEMERIS_TYPE":"0","APOAPSIS":"547.837","PERIOD":"95.589","LAUNCH_DATE":"2020-08-18","PERIAPSIS":"546.329","SEMIMAJOR_AXIS":"6925.218","NORAD_CAT_ID":"46167","GP_ID":"227399576","EPOCH":"2023-03-03T10:36:57.489120","ELEMENT_SET_NO":"999","ARG_OF_PERICENTER":"103.5592","MEAN_MOTION":"15.06442514","CENTER_NAME":"EARTH","OBJECT_ID":"2020-057BC","MEAN_ELEMENT_THEORY":"SGP4","BSTAR":"0.00172340000000","MEAN_MOTION_DOT":"0.00025511","SITE":"AFETR","REV_AT_EPOCH":"13993","TLE_LINE2":"2 46167  53.0523 224.7967 0001089 103.5592 256.5518 15.06442514139933","RCS_SIZE":"LARGE","OBJECT_NAME":"STARLINK-1626","FILE":"3850163","COUNTRY_CODE":"US","MEAN_ANOMALY":"256.5518","RA_OF_ASC_NODE":"224.7967","ECCENTRICITY":"0.00010890","INCLINATION":"53.0523","TLE_LINE1":"1 46167U 20057BC  23062.44233205  .00025511  00000-0  17234-2 0  9997","DECAY_DATE":null,"CLASSIFICATION_TYPE":"U","MEAN_MOTION_DDOT":"0.0000000000000","OBJECT_TYPE":"PAYLOAD","TIME_SYSTEM":"UTC"},{"MEAN_MOTION_DDOT":"0.0000000000000","CLASSIFICATION_TYPE":"U","TIME_SYSTEM":"UTC","OBJECT_TYPE":"PAYLOAD","ECCENTRICITY":"0.00024450","DECAY_DATE":null,"INCLINATION":"53.0530","TLE_LINE1":"1 46168U 20057BD  23062.48750176  .00017973  00000-0  12226-2 0  9992","COUNTRY_CODE":"US","RA_OF_ASC_NODE":"174.6837","MEAN_ANOMALY":"241.0302","REV_AT_EPOCH":"14063","TLE_LINE2":"2 46168  53.0530 174.6837 0002445 119.0932 241.0302 15.06394456140638","RCS_SIZE":"LARGE","OBJECT_NAME":"STARLINK-1627","FILE":"3850400","OBJECT_ID":"2020-057BD","CENTER_NAME":"EARTH","MEAN_MOTION_DOT":"0.00017973","BSTAR":"0.00122260000000","MEAN_ELEMENT_THEORY":"SGP4","SITE":"AFETR","ELEMENT_SET_NO":"999","ARG_OF_PERICENTER":"119.0932","MEAN_MOTION":"15.06394456","PERIAPSIS":"545.537","NORAD_CAT_ID":"46168","SEMIMAJOR_AXIS":"6925.366","EPOCH":"2023-03-03T11:42:00.152064","GP_ID":"227430832","REF_FRAME":"TEME","EPHEMERIS_TYPE":"0","PERIOD":"95.592","APOAPSIS":"548.924","LAUNCH_DATE":"2020-08-18"},{"REF_FRAME":"TEME","EPHEMERIS_TYPE":"0","APOAPSIS":"548.196","PERIOD":"95.591","LAUNCH_DATE":"2020-08-18","PERIAPSIS":"546.145","SEMIMAJOR_AXIS":"6925.305","NORAD_CAT_ID":"46169","GP_ID":"227431582","EPOCH":"2023-03-03T17:20:23.137728","ELEMENT_SET_NO":"999","ARG_OF_PERICENTER":"94.8748","MEAN_MOTION":"15.06414121","CENTER_NAME":"EARTH","OBJECT_ID":"2020-057BE","BSTAR":"0.00033948000000","MEAN_ELEMENT_THEORY":"SGP4","MEAN_MOTION_DOT":"0.00004781","SITE":"AFETR","REV_AT_EPOCH":"13991","RCS_SIZE":"LARGE","TLE_LINE2":"2 46169  53.0530 223.9181 0001481  94.8748 265.2410 15.06414121139912","FILE":"3850400","OBJECT_NAME":"STARLINK-1628","COUNTRY_CODE":"US","MEAN_ANOMALY":"265.2410","RA_OF_ASC_NODE":"223.9181","ECCENTRICITY":"0.00014810","INCLINATION":"53.0530","TLE_LINE1":"1 46169U 20057BE  23062.72249002  .00004781  00000-0  33948-3 0  9999","DECAY_DATE":null,"CLASSIFICATION_TYPE":"U","MEAN_MOTION_DDOT":"0.0000000000000","OBJECT_TYPE":"PAYLOAD","TIME_SYSTEM":"UTC"},{"EPHEMERIS_TYPE":"0","REF_FRAME":"TEME","LAUNCH_DATE":"2020-08-18","APOAPSIS":"548.545","PERIOD":"95.590","PERIAPSIS":"545.702","EPOCH":"2023-03-03T16:24:35.062560","GP_ID":"227430330","NORAD_CAT_ID":"46171","SEMIMAJOR_AXIS":"6925.259","ARG_OF_PERICENTER":"92.9806","ELEMENT_SET_NO":"999","MEAN_MOTION":"15.06429305","MEAN_MOTION_DOT":"0.00014041","MEAN_ELEMENT_THEORY":"SGP4","BSTAR":"0.00095890000000","OBJECT_ID":"2020-057BG","CENTER_NAME":"EARTH","SITE":"AFETR","REV_AT_EPOCH":"14150","OBJECT_NAME":"STARLINK-1633","FILE":"3850400","RCS_SIZE":"LARGE","TLE_LINE2":"2 46171  53.0524 203.7140 0002053  92.9806 267.1418 15.06429305141506","RA_OF_ASC_NODE":"203.7140","MEAN_ANOMALY":"267.1418","COUNTRY_CODE":"US","DECAY_DATE":null,"TLE_LINE1":"1 46171U 20057BG  23062.68373915  .00014041  00000-0  95890-3 0  9992","INCLINATION":"53.0524","ECCENTRICITY":"0.00020530","MEAN_MOTION_DDOT":"0.0000000000000","CLASSIFICATION_TYPE":"U","TIME_SYSTEM":"UTC","OBJECT_TYPE":"PAYLOAD"},{"RCS_SIZE":"LARGE","TLE_LINE2":"2 46172  53.0512 205.1357 0001279  95.6442 264.4693 15.06407371141453","OBJECT_NAME":"STARLINK-1635","FILE":"3850163","REV_AT_EPOCH":"14145","COUNTRY_CODE":"US","MEAN_ANOMALY":"264.4693","RA_OF_ASC_NODE":"205.1357","ECCENTRICITY":"0.00012790","TLE_LINE1":"1 46172U 20057BH  23062.36675510  .00004954  00000-0  35118-3 0  9993","INCLINATION":"53.0512","DECAY_DATE":null,"OBJECT_TYPE":"PAYLOAD","TIME_SYSTEM":"UTC","CLASSIFICATION_TYPE":"U","MEAN_MOTION_DDOT":"0.0000000000000","APOAPSIS":"548.077","PERIOD":"95.592","LAUNCH_DATE":"2020-08-18","REF_FRAME":"TEME","EPHEMERIS_TYPE":"0","SEMIMAJOR_AXIS":"6925.326","NORAD_CAT_ID":"46172","GP_ID":"227400076","EPOCH":"2023-03-03T08:48:07.640640","PERIAPSIS":"546.305","MEAN_MOTION":"15.06407371","ELEMENT_SET_NO":"999","ARG_OF_PERICENTER":"95.6442","SITE":"AFETR","CENTER_NAME":"EARTH","OBJECT_ID":"2020-057BH","MEAN_ELEMENT_THEORY":"SGP4","BSTAR":"0.00035118000000","MEAN_MOTION_DOT":"0.00004954"},{"ECCENTRICITY":"0.00012540","TLE_LINE1":"1 46173U 20057BJ  23062.74458217  .00031444  00000-0  21194-2 0  9991","INCLINATION":"53.0529","DECAY_DATE":null,"CLASSIFICATION_TYPE":"U","MEAN_MOTION_DDOT":"0.0000000000000","OBJECT_TYPE":"PAYLOAD","TIME_SYSTEM":"UTC","REV_AT_EPOCH":"13997","TLE_LINE2":"2 46173  53.0529 223.4378 0001254  46.2992 313.8101 15.06418795139972","RCS_SIZE":"LARGE","FILE":"3850400","OBJECT_NAME":"STARLINK-1640","COUNTRY_CODE":"US","MEAN_ANOMALY":"313.8101","RA_OF_ASC_NODE":"223.4378","ELEMENT_SET_NO":"999","ARG_OF_PERICENTER":"46.2992","MEAN_MOTION":"15.06418795","CENTER_NAME":"EARTH","OBJECT_ID":"2020-057BJ","MEAN_ELEMENT_THEORY":"SGP4","BSTAR":"0.00211940000000","MEAN_MOTION_DOT":"0.00031444","SITE":"AFETR","REF_FRAME":"TEME","EPHEMERIS_TYPE":"0","PERIOD":"95.591","APOAPSIS":"548.024","LAUNCH_DATE":"2020-08-18","PERIAPSIS":"546.288","SEMIMAJOR_AXIS":"6925.291","NORAD_CAT_ID":"46173","GP_ID":"227431332","EPOCH":"2023-03-03T17:52:11.899488"},{"TIME_SYSTEM":"UTC","OBJECT_TYPE":"PAYLOAD","MEAN_MOTION_DDOT":"0.0000000000000","CLASSIFICATION_TYPE":"U","ECCENTRICITY":"0.00011970","DECAY_DATE":null,"INCLINATION":"53.0538","TLE_LINE1":"1 46174U 20057BK  23062.81827556  .00010580  00000-0  72762-3 0  9992","COUNTRY_CODE":"US","RA_OF_ASC_NODE":"223.1079","MEAN_ANOMALY":"263.7651","TLE_LINE2":"2 46174  53.0538 223.1079 0001197  96.3474 263.7651 15.06425477139984","RCS_SIZE":"LARGE","OBJECT_NAME":"STARLINK-1641","FILE":"3850400","REV_AT_EPOCH":"13998","SITE":"AFETR","OBJECT_ID":"2020-057BK","CENTER_NAME":"EARTH","MEAN_MOTION_DOT":"0.00010580","BSTAR":"0.00072762000000","MEAN_ELEMENT_THEORY":"SGP4","MEAN_MOTION":"15.06425477","ELEMENT_SET_NO":"999","ARG_OF_PERICENTER":"96.3474","NORAD_CAT_ID":"46174","SEMIMAJOR_AXIS":"6925.270","EPOCH":"2023-03-03T19:38:19.008384","GP_ID":"227431083","PERIAPSIS":"546.307","APOAPSIS":"547.964","PERIOD":"95.591","LAUNCH_DATE":"2020-08-18","REF_FRAME":"TEME","EPHEMERIS_TYPE":"0"}];
